COMMENT,ORIGINATOR,NORAD_CAT_ID,OBJECT_NAME,OBJECT_TYPE,CLASSIFICATION_TYPE,INTLDES,EPOCH,EPOCH_MICROSECONDS,MEAN_MOTION,ECCENTRICITY,INCLINATION,RA_OF_ASC_NODE,ARG_OF_PERICENTER,MEAN_ANOMALY,EPHEMERIS_TYPE,ELEMENT_SET_NO,REV_AT_EPOCH,BSTAR,MEAN_MOTION_DOT,MEAN_MOTION_DDOT,FILE,TLE_LINE0,TLE_LINE1,TLE_LINE2,OBJECT_ID,OBJECT_NUMBER,SEMIMAJOR_AXIS,PERIOD,APOGEE,PERIGEE,DECAYED
GENERATED VIA SPACETRACK.ORG API,18 SPCS,50803,STARLINK-3321,PAYLOAD,U,22001A,2022-08-31 06:32:41,903808,15.08819118,0.0002331,53.2179,184.0648,56.5541,303.5674,0,999,3620,-9.0828e-05,-1.733e-05,0.0,3552511,0 STARLINK-3321,1 50803U 22001A   22243.27270722 -.00001733  00000-0 -90828-4 0  9990,2 50803  53.2179 184.0648 0002331  56.5541 303.5674 15.08819118 36202,2022-001A,50803,6917.944,95.439,541.422,538.197,1
GENERATED VIA SPACETRACK.ORG API,18 SPCS,50803,STARLINK-3321,PAYLOAD,U,22001A,2022-08-31 20:51:09,72000,15.0883169,0.0002163,53.2178,181.3899,57.2218,302.8983,0,999,3629,0.00011866,1.6e-05,0.0,3552761,0 STARLINK-3321,1 50803U 22001A   22243.86885500  .00001600  00000-0  11866-3 0  9996,2 50803  53.2178 181.3899 0002163  57.2218 302.8983 15.08831690 36294,2022-001A,50803,6917.906,95.438,541.267,538.274,1
GENERATED VIA SPACETRACK.ORG API,18 SPCS,50803,STARLINK-3321,PAYLOAD,U,22001A,2022-09-01 01:37:18,267456,15.08835981,0.000221,53.2182,180.4976,58.4441,301.6767,0,999,3759,0.00014529,2.025e-05,0.0,3552859,0 STARLINK-3321,1 50803U 22001A   22244.06757254  .00002025  00000-0  14529-3 0  9994,2 50803  53.2182 180.4976 0002210  58.4441 301.6767 15.08835981 37597,2022-001A,50803,6917.893,95.438,541.287,538.229,1
GENERATED VIA SPACETRACK.ORG API,18 SPCS,50803,STARLINK-3321,PAYLOAD,U,22001A,2022-09-01 12:44:59,782272,15.08843646,0.000209,53.2171,178.4166,57.0719,303.0474,0,999,3639,0.00020075,2.909e-05,0.0,3553574,0 STARLINK-3321,1 50803U 22001A   22244.53124748  .00002909  00000-0  20075-3 0  9996,2 50803  53.2171 178.4166 0002090  57.0719 303.0474 15.08843646 36397,2022-001A,50803,6917.869,95.437,541.18,538.288,1
GENERATED VIA SPACETRACK.ORG API,18 SPCS,50803,STARLINK-3321,PAYLOAD,U,22001A,2022-09-01 12:44:59,782272,15.08843646,0.000209,53.2171,178.4166,57.0719,303.0474,0,999,3766,0.00020075,2.909e-05,0.0,3553663,0 STARLINK-3321,1 50803U 22001A   22244.53124748  .00002909  00000-0  20075-3 0  9996,2 50803  53.2171 178.4166 0002090  57.0719 303.0474 15.08843646 37668,2022-001A,50803,6917.869,95.437,541.18,538.288,1
GENERATED VIA SPACETRACK.ORG API,18 SPCS,50803,STARLINK-3321,PAYLOAD,U,22001A,2022-09-02 03:03:28,843488,15.08829636,0.0002161,53.2173,175.7402,56.7025,303.4174,0,999,3775,0.00020561,2.985e-05,0.0,3554211,0 STARLINK-3321,1 50803U 22001A   22245.12741717  .00002985  00000-0  20561-3 0  9997,2 50803  53.2173 175.7402 0002161  56.7025 303.4174 15.08829636 37752,2022-001A,50803,6917.912,95.438,541.272,538.282,1
GENERATED VIA SPACETRACK.ORG API,18 SPCS,50803,STARLINK-3321,PAYLOAD,U,22001A,2022-09-02 12:35:47,579136,15.08831218,0.000216,53.2169,173.9561,55.1873,304.9322,0,999,3654,0.00027021,4.014e-05,0.0,3555279,0 STARLINK-3321,1 50803U 22001A   22245.52485624  .00004014  00000-0  27021-3 0  9996,2 50803  53.2169 173.9561 0002160  55.1873 304.9322 15.08831218 36542,2022-001A,50803,6917.907,95.438,541.267,538.278,1
GENERATED VIA SPACETRACK.ORG API,18 SPCS,50803,STARLINK-3321,PAYLOAD,U,22001A,2022-09-02 18:57:19,519200,15.08847369,0.0002087,53.2173,172.7655,57.6715,302.4479,0,999,3658,6.0797e-05,6.8e-06,0.0,3555599,0 STARLINK-3321,1 50803U 22001A   22245.78980925  .00000680  00000-0  60797-4 0  9991,2 50803  53.2173 172.7655 0002087  57.6715 302.4479 15.08847369 36582,2022-001A,50803,6917.858,95.437,541.167,538.279,1
GENERATED VIA SPACETRACK.ORG API,18 SPCS,50803,STARLINK-3321,PAYLOAD,U,22001A,2022-09-03 02:54:15,107616,15.08847759,0.0001972,53.2175,171.2793,56.1788,303.9392,0,999,3790,1.4058e-05,-6.4e-07,0.0,3555691,0 STARLINK-3321,1 50803U 22001A   22246.12100819 -.00000064  00000-0  14058-4 0  9992,2 50803  53.2175 171.2793 0001972  56.1788 303.9392 15.08847759 37907,2022-001A,50803,6917.857,95.437,541.086,538.357,1
GENERATED VIA SPACETRACK.ORG API,18 SPCS,50803,STARLINK-3321,PAYLOAD,U,22001A,2022-09-03 12:26:34,78272,15.08845742,0.0002005,53.2177,169.4959,56.0724,304.0458,0,999,3669,-2.314e-05,-6.57e-06,0.0,3556494,0 STARLINK-3321,1 50803U 22001A   22246.51844998 -.00000657  00000-0 -23140-4 0  9999,2 50803  53.2177 169.4959 0002005  56.0724 304.0458 15.08845742 36699,2022-001A,50803,6917.863,95.437,541.115,538.341,1
GENERATED VIA SPACETRACK.ORG API,18 SPCS,50803,STARLINK-3321,PAYLOAD,U,22001A,2022-09-03 18:48:06,402816,15.08844576,0.0001901,53.2182,168.3045,59.2525,300.8654,0,999,3673,3.4481e-05,2.61e-06,0.0,3556957,0 STARLINK-3321,1 50803U 22001A   22246.78340744  .00000261  00000-0  34481-4 0  9997,2 50803  53.2182 168.3045 0001901  59.2525 300.8654 15.08844576 36738,2022-001A,50803,6917.866,95.437,541.046,538.416,1
GENERATED VIA SPACETRACK.ORG API,18 SPCS,50803,STARLINK-3321,PAYLOAD,U,22001A,2022-09-04 04:20:24,345312,15.08852833,0.0002011,53.2174,166.5211,58.8603,301.2586,0,999,3806,0.00010896,1.447e-05,0.0,3557602,0 STARLINK-3321,1 50803U 22001A   22247.18083733  .00001447  00000-0  10896-3 0  9994,2 50803  53.2174 166.5211 0002011  58.8603 301.2586 15.08852833 38061,2022-001A,50803,6917.841,95.437,541.097,538.315,1
GENERATED VIA SPACETRACK.ORG API,18 SPCS,50803,STARLINK-3321,PAYLOAD,U,22001A,2022-09-04 12:17:20,222304,15.08850427,0.0002094,53.2176,165.0352,56.9406,303.1787,0,999,3684,7.9428e-05,9.76e-06,0.0,3557975,0 STARLINK-3321,1 50803U 22001A   22247.51203961  .00000976  00000-0  79428-4 0  9991,2 50803  53.2176 165.0352 0002094  56.9406 303.1787 15.08850427 36849,2022-001A,50803,6917.849,95.437,541.162,538.265,1
GENERATED VIA SPACETRACK.ORG API,18 SPCS,50803,STARLINK-3321,PAYLOAD,U,22001A,2022-09-05 01:00:25,597152,15.08853616,0.0002135,53.218,162.656,58.5691,301.551,0,999,3819,-0.00017385,-3.055e-05,0.0,3558479,0 STARLINK-3321,1 50803U 22001A   22248.04196293 -.00003055  00000-0 -17385-3 0  9995,2 50803  53.2180 162.6560 0002135  58.5691 301.5510 15.08853616 38197,2022-001A,50803,6917.839,95.437,541.181,538.227,1
GENERATED VIA SPACETRACK.ORG API,18 SPCS,50803,STARLINK-3321,PAYLOAD,U,22001A,2022-09-05 04:11:11,585760,15.08853983,0.000196,53.2177,162.0599,67.3971,292.7228,0,999,3694,-0.00012656,-2.303e-05,0.0,3559490,0 STARLINK-3321,1 50803U 22001A   22248.17443965 -.00002303  00000-0 -12656-3 0  9991,2 50803  53.2177 162.0599 0001960  67.3971 292.7228 15.08853983 36948,2022-001A,50803,6917.838,95.437,541.059,538.347,1
GENERATED VIA SPACETRACK.ORG API,18 SPCS,50803,STARLINK-3321,PAYLOAD,U,22001A,2022-09-06 04:01:59,894112,15.0883242,0.0001794,53.2178,157.5991,69.9306,290.1879,0,999,3836,-0.00015046,-2.681e-05,0.0,3559896,0 STARLINK-3321,1 50803U 22001A   22249.16805433 -.00002681  00000-0 -15046-3 0  9998,2 50803  53.2178 157.5991 0001794  69.9306 290.1879 15.08832420 38364,2022-001A,50803,6917.904,95.438,541.01,538.527,1
GENERATED VIA SPACETRACK.ORG API,18 SPCS,50803,STARLINK-3321,PAYLOAD,U,22001A,2022-09-07 02:17:24,333792,15.08828469,0.0001848,53.2176,153.4388,53.0712,307.0449,0,999,3723,-5.5824e-05,-1.176e-05,0.0,3562217,0 STARLINK-3321,1 50803U 22001A   22250.09542053 -.00001176  00000-0 -55824-4 0  9995,2 50803  53.2176 153.4388 0001848  53.0712 307.0449 15.08828469 37236,2022-001A,50803,6917.916,95.438,541.059,538.502,1
GENERATED VIA SPACETRACK.ORG API,18 SPCS,50803,STARLINK-3321,PAYLOAD,U,22001A,2022-09-08 03:43:33,884256,15.08837757,0.0001861,53.2177,148.6803,52.457,307.6591,0,999,3866,0.00016024,2.263e-05,0.0,3563104,0 STARLINK-3321,1 50803U 22001A   22251.15525329  .00002263  00000-0  16024-3 0  9994,2 50803  53.2177 148.6803 0001861  52.4570 307.6591 15.08837757 38667,2022-001A,50803,6917.887,95.438,541.04,538.465,1
GENERATED VIA SPACETRACK.ORG API,18 SPCS,50803,STARLINK-3321,PAYLOAD,U,22001A,2022-09-08 03:43:33,884256,15.08837757,0.0001861,53.2177,148.6803,52.457,307.6591,0,999,3739,0.00016024,2.263e-05,0.0,3563723,0 STARLINK-3321,1 50803U 22001A   22251.15525329  .00002263  00000-0  16024-3 0  9994,2 50803  53.2177 148.6803 0001861  52.4570 307.6591 15.08837757 37396,2022-001A,50803,6917.887,95.438,541.04,538.465,1
GENERATED VIA SPACETRACK.ORG API,18 SPCS,50803,STARLINK-3321,PAYLOAD,U,22001A,2022-09-08 18:02:02,192064,15.08822253,0.0001829,53.218,146.0037,58.5559,301.5611,0,999,3748,0.00035231,5.321e-05,0.0,3564431,0 STARLINK-3321,1 50803U 22001A   22251.75141426  .00005321  00000-0  35231-3 0  9991,2 50803  53.2180 146.0037 0001829  58.5559 301.5611 15.08822253 37480,2022-001A,50803,6917.935,95.439,541.065,538.534,1
GENERATED VIA SPACETRACK.ORG API,18 SPCS,50803,STARLINK-3321,PAYLOAD,U,22001A,2022-09-09 01:58:57,684576,15.08838845,0.0001817,53.2181,144.5168,55.6499,304.4665,0,999,3753,0.00020696,3.007e-05,0.0,3564914,0 STARLINK-3321,1 50803U 22001A   22252.08261209  .00003007  00000-0  20696-3 0  9998,2 50803  53.2181 144.5168 0001817  55.6499 304.4665 15.08838845 37538,2022-001A,50803,6917.884,95.438,541.006,538.492,1
GENERATED VIA SPACETRACK.ORG API,18 SPCS,50803,STARLINK-3321,PAYLOAD,U,22001A,2022-09-10 01:49:45,26112,15.08841633,0.0001811,53.2176,140.0566,52.5223,307.5934,0,999,3895,-4.6709e-05,-1.031e-05,0.0,3565670,0 STARLINK-3321,1 50803U 22001A   22253.07621558 -.00001031  00000-0 -46709-4 0  9996,2 50803  53.2176 140.0566 0001811  52.5223 307.5934 15.08841633 38959,2022-001A,50803,6917.875,95.437,540.993,538.488,1
GENERATED VIA SPACETRACK.ORG API,18 SPCS,50803,STARLINK-3321,PAYLOAD,U,22001A,2022-09-10 01:49:45,26112,15.08841633,0.0001811,53.2176,140.0566,52.5223,307.5934,0,999,3768,-4.6709e-05,-1.031e-05,0.0,3567066,0 STARLINK-3321,1 50803U 22001A   22253.07621558 -.00001031  00000-0 -46709-4 0  9996,2 50803  53.2176 140.0566 0001811  52.5223 307.5934 15.08841633 37688,2022-001A,50803,6917.875,95.437,540.993,538.488,1
